{
  "type": "FeatureCollection",
  "total_corridors": 16,
  "features": [
    {
      "type": "Feature",
      "geometry": {
        "type": "LineString",
        "coordinates": [
          [
            -71.0589,
            42.3519
          ],
          [
            -71.4189,
            41.824
          ],
          [
            -71.4988,
            41.6608
          ],
          [
            -72.0995,
            41.3557
          ],
          [
            -72.9267,
            41.3083
          ],
          [
            -73.5387,
            41.0534
          ],
          [
            -73.9935,
            40.7505
          ],
          [
            -74.1724,
            40.7357
          ],
          [
            -74.7699,
            40.2206
          ],
          [
            -75.182,
            39.9558
          ],
          [
            -75.5511,
            39.7371
          ],
          [
            -76.0712,
            39.5598
          ],
          [
            -76.6169,
            39.3072
          ],
          [
            -77.0063,
            38.8974
          ]
        ]
      },
      "properties": {
        "corridor_id": "corridor_nec",
        "name": "Northeast Corridor (NEC)",
        "operator": "Amtrak / Commuter Shared",
        "subdivision": "Mid-Atlantic & New England Div",
        "routes": [
          "Northeast Regional",
          "Acela",
          "Vermonter",
          "Hartford Line",
          "Valley Flyer",
          "Pennsylvanian",
          "Keystone",
          "MBTA CR-Providence"
        ],
        "waypoints": 14
      }
    },
    {
      "type": "Feature",
      "geometry": {
        "type": "LineString",
        "coordinates": [
          [
            -87.639,
            41.8789
          ],
          [
            -88.0817,
            41.525
          ],
          [
            -89.0664,
            41.9168
          ],
          [
            -90.3664,
            40.9431
          ],
          [
            -91.366,
            40.3934
          ],
          [
            -94.5857,
            39.085
          ],
          [
            -95.678,
            39.0473
          ],
          [
            -97.3375,
            37.6872
          ],
          [
            -100.0171,
            37.7528
          ],
          [
            -103.5438,
            37.9847
          ],
          [
            -104.4292,
            36.9034
          ],
          [
            -105.2242,
            35.5939
          ],
          [
            -105.9067,
            35.4856
          ],
          [
            -106.6504,
            35.0844
          ],
          [
            -108.7426,
            35.5281
          ],
          [
            -110.6974,
            35.0242
          ],
          [
            -111.6483,
            35.1977
          ],
          [
            -112.1871,
            35.2495
          ],
          [
            -114.053,
            35.1894
          ],
          [
            -114.6142,
            34.8481
          ],
          [
            -117.0173,
            34.8958
          ],
          [
            -117.3117,
            34.1083
          ],
          [
            -117.9228,
            33.8687
          ],
          [
            -118.2365,
            34.0562
          ]
        ]
      },
      "properties": {
        "corridor_id": "corridor_bnsf_transcon",
        "name": "BNSF Southern Transcon & Southwest Corridor",
        "operator": "BNSF / Amtrak Southwest Chief",
        "subdivision": "Transcon Mainline",
        "routes": [
          "Southwest Chief",
          "Illinois Zephyr",
          "Carl Sandburg"
        ],
        "waypoints": 24
      }
    },
    {
      "type": "Feature",
      "geometry": {
        "type": "LineString",
        "coordinates": [
          [
            -75.182,
            39.9558
          ],
          [
            -75.4828,
            40.035
          ],
          [
            -76.3055,
            40.0379
          ],
          [
            -76.8867,
            40.2625
          ],
          [
            -77.5714,
            40.5992
          ],
          [
            -78.0125,
            40.4853
          ],
          [
            -78.2372,
            40.6714
          ],
          [
            -78.4011,
            40.5187
          ],
          [
            -78.4842,
            40.4965
          ],
          [
            -78.6014,
            40.4614
          ],
          [
            -78.9225,
            40.3267
          ],
          [
            -79.3828,
            40.3214
          ],
          [
            -79.5442,
            40.3014
          ],
          [
            -79.9959,
            40.4406
          ]
        ]
      },
      "properties": {
        "corridor_id": "corridor_pittsburgh_line",
        "name": "NS Pittsburgh Line / Keystone Corridor",
        "operator": "Norfolk Southern / Amtrak Pennsylvanian",
        "subdivision": "NS Pittsburgh Division",
        "routes": [
          "Pennsylvanian",
          "Keystone",
          "Keystone Service"
        ],
        "waypoints": 14
      }
    },
    {
      "type": "Feature",
      "geometry": {
        "type": "LineString",
        "coordinates": [
          [
            -119.7871,
            36.7468
          ],
          [
            -119.6456,
            36.3275
          ],
          [
            -119.0187,
            35.3733
          ],
          [
            -118.6312,
            35.2925
          ],
          [
            -118.5367,
            35.2008
          ],
          [
            -118.4489,
            35.1322
          ],
          [
            -118.1737,
            35.0525
          ],
          [
            -118.1367,
            34.6981
          ],
          [
            -118.1165,
            34.5794
          ]
        ]
      },
      "properties": {
        "corridor_id": "corridor_tehachapi",
        "name": "UP Mojave Subdivision (Tehachapi Pass)",
        "operator": "Union Pacific / BNSF Trackage Rights",
        "subdivision": "UP Mojave Sub",
        "routes": [
          "San Joaquins"
        ],
        "waypoints": 9
      }
    },
    {
      "type": "Feature",
      "geometry": {
        "type": "LineString",
        "coordinates": [
          [
            -87.639,
            41.8789
          ],
          [
            -87.9065,
            43.0389
          ],
          [
            -91.2519,
            43.8014
          ],
          [
            -93.0899,
            44.9537
          ],
          [
            -94.1632,
            45.5579
          ],
          [
            -96.7898,
            46.8772
          ],
          [
            -97.0329,
            47.9253
          ],
          [
            -101.2923,
            48.233
          ],
          [
            -103.6246,
            48.147
          ],
          [
            -106.6345,
            48.195
          ],
          [
            -109.6847,
            48.55
          ],
          [
            -111.8586,
            48.505
          ],
          [
            -113.3134,
            48.3317
          ],
          [
            -114.3418,
            48.4111
          ],
          [
            -115.5552,
            48.3938
          ],
          [
            -116.5535,
            48.2766
          ],
          [
            -117.426,
            47.6588
          ],
          [
            -119.2845,
            46.2304
          ],
          [
            -121.5,
            47.3
          ],
          [
            -122.1956,
            47.9789
          ],
          [
            -122.3297,
            47.5985
          ]
        ]
      },
      "properties": {
        "corridor_id": "corridor_empire_builder",
        "name": "Empire Builder Northern Transcon (BNSF)",
        "operator": "BNSF / Amtrak Empire Builder",
        "subdivision": "Northern Transcon",
        "routes": [
          "Empire Builder"
        ],
        "waypoints": 21
      }
    },
    {
      "type": "Feature",
      "geometry": {
        "type": "LineString",
        "coordinates": [
          [
            -87.639,
            41.8789
          ],
          [
            -89.0664,
            41.9168
          ],
          [
            -90.3664,
            40.9431
          ],
          [
            -90.5776,
            41.5236
          ],
          [
            -93.6091,
            41.0336
          ],
          [
            -95.9345,
            41.2565
          ],
          [
            -96.7026,
            40.8136
          ],
          [
            -100.7654,
            41.1359
          ],
          [
            -104.9903,
            39.7392
          ],
          [
            -105.8,
            39.9
          ],
          [
            -107.3248,
            39.5505
          ],
          [
            -108.5506,
            39.0639
          ],
          [
            -110.8118,
            39.5994
          ],
          [
            -111.6585,
            40.2338
          ],
          [
            -111.891,
            40.7608
          ],
          [
            -114.9817,
            40.8324
          ],
          [
            -117.7357,
            40.973
          ],
          [
            -119.8138,
            39.5296
          ],
          [
            -120.1833,
            39.328
          ],
          [
            -121.0744,
            38.8966
          ],
          [
            -121.4944,
            38.5816
          ],
          [
            -122.04,
            38.2494
          ],
          [
            -122.1341,
            38.0194
          ],
          [
            -122.2853,
            37.8313
          ]
        ]
      },
      "properties": {
        "corridor_id": "corridor_california_zephyr",
        "name": "California Zephyr Overland Route (UP/BNSF)",
        "operator": "Union Pacific / BNSF / Amtrak",
        "subdivision": "Overland Route",
        "routes": [
          "California Zephyr"
        ],
        "waypoints": 24
      }
    },
    {
      "type": "Feature",
      "geometry": {
        "type": "LineString",
        "coordinates": [
          [
            -122.3297,
            47.5985
          ],
          [
            -122.4443,
            47.2529
          ],
          [
            -122.9007,
            47.0379
          ],
          [
            -122.6784,
            45.5152
          ],
          [
            -123.0868,
            44.0521
          ],
          [
            -121.7817,
            42.2249
          ],
          [
            -122.3106,
            41.31
          ],
          [
            -122.3917,
            40.5865
          ],
          [
            -121.8375,
            39.7285
          ],
          [
            -121.4944,
            38.5816
          ],
          [
            -122.2711,
            37.8044
          ],
          [
            -121.9022,
            37.3382
          ],
          [
            -121.6555,
            36.6777
          ],
          [
            -120.6596,
            35.6269
          ],
          [
            -120.6596,
            35.2828
          ],
          [
            -119.6982,
            34.4208
          ],
          [
            -118.2365,
            34.0562
          ]
        ]
      },
      "properties": {
        "corridor_id": "corridor_coast_starlight",
        "name": "Coast Starlight Pacific Coast Line (UP)",
        "operator": "Union Pacific / Amtrak Coast Starlight",
        "subdivision": "I-5 & Coast Line",
        "routes": [
          "Coast Starlight"
        ],
        "waypoints": 17
      }
    },
    {
      "type": "Feature",
      "geometry": {
        "type": "LineString",
        "coordinates": [
          [
            -90.0715,
            29.9511
          ],
          [
            -91.8749,
            30.2241
          ],
          [
            -93.2174,
            30.2266
          ],
          [
            -94.1018,
            30.0802
          ],
          [
            -95.3698,
            29.7604
          ],
          [
            -98.4936,
            29.4241
          ],
          [
            -100.8968,
            29.3627
          ],
          [
            -103.2504,
            30.2113
          ],
          [
            -103.6379,
            30.3585
          ],
          [
            -106.485,
            31.7619
          ],
          [
            -108.6575,
            32.2687
          ],
          [
            -109.8312,
            32.2534
          ],
          [
            -110.9747,
            32.2226
          ],
          [
            -112.0476,
            33.0581
          ],
          [
            -114.6277,
            32.6927
          ],
          [
            -116.5453,
            33.8303
          ],
          [
            -117.3117,
            34.1083
          ],
          [
            -118.2365,
            34.0562
          ]
        ]
      },
      "properties": {
        "corridor_id": "corridor_sunset_limited",
        "name": "Sunset Limited / Texas Eagle Corridor (UP)",
        "operator": "Union Pacific / Amtrak",
        "subdivision": "Sunset Route",
        "routes": [
          "Sunset Limited",
          "Texas Eagle"
        ],
        "waypoints": 18
      }
    },
    {
      "type": "Feature",
      "geometry": {
        "type": "LineString",
        "coordinates": [
          [
            -120.6596,
            35.2828
          ],
          [
            -120.4578,
            34.953
          ],
          [
            -119.6982,
            34.4208
          ],
          [
            -119.2945,
            34.2746
          ],
          [
            -118.5361,
            34.1808
          ],
          [
            -118.2365,
            34.0562
          ],
          [
            -117.9228,
            33.8687
          ],
          [
            -117.8765,
            33.8033
          ],
          [
            -117.8311,
            33.7455
          ],
          [
            -117.732,
            33.657
          ],
          [
            -117.6625,
            33.5017
          ],
          [
            -117.3795,
            33.1959
          ],
          [
            -117.293,
            33.0489
          ],
          [
            -117.2662,
            32.9628
          ],
          [
            -117.1699,
            32.7165
          ]
        ]
      },
      "properties": {
        "corridor_id": "corridor_pacific_surfliner",
        "name": "Pacific Surfliner Coastal Corridor (LOSSAN)",
        "operator": "Amtrak / Metrolink / BNSF",
        "subdivision": "LOSSAN Rail Corridor",
        "routes": [
          "Pacific Surfliner"
        ],
        "waypoints": 15
      }
    },
    {
      "type": "Feature",
      "geometry": {
        "type": "LineString",
        "coordinates": [
          [
            -123.1207,
            49.2827
          ],
          [
            -122.4786,
            48.7519
          ],
          [
            -122.3331,
            48.4218
          ],
          [
            -122.1956,
            47.9789
          ],
          [
            -122.3789,
            47.8107
          ],
          [
            -122.3297,
            47.5985
          ],
          [
            -122.2307,
            47.3809
          ],
          [
            -122.4443,
            47.2529
          ],
          [
            -122.9007,
            47.0379
          ],
          [
            -122.9555,
            46.7162
          ],
          [
            -122.9082,
            46.1415
          ],
          [
            -122.6784,
            45.6264
          ],
          [
            -122.6784,
            45.5152
          ],
          [
            -122.9898,
            44.9429
          ],
          [
            -123.0868,
            44.0521
          ]
        ]
      },
      "properties": {
        "corridor_id": "corridor_cascades",
        "name": "Amtrak Cascades & Puget Sound Corridor (BNSF)",
        "operator": "BNSF / WSDOT / Sound Transit",
        "subdivision": "BNSF Seattle & Scenic Sub",
        "routes": [
          "Cascades",
          "Amtrak Cascades",
          "Sound Transit",
          "Sounder",
          "Sound Transit Regional Rail",
          "Sound Transit 100511"
        ],
        "waypoints": 15
      }
    },
    {
      "type": "Feature",
      "geometry": {
        "type": "LineString",
        "coordinates": [
          [
            -87.639,
            41.8789
          ],
          [
            -87.8631,
            41.12
          ],
          [
            -88.2434,
            40.1164
          ],
          [
            -88.5434,
            39.1225
          ],
          [
            -89.1765,
            38.2698
          ],
          [
            -89.2168,
            37.7273
          ],
          [
            -90.049,
            35.1495
          ],
          [
            -90.5841,
            33.5162
          ],
          [
            -90.1848,
            32.2988
          ],
          [
            -90.4682,
            31.2827
          ],
          [
            -90.4651,
            30.5044
          ],
          [
            -90.0715,
            29.9511
          ]
        ]
      },
      "properties": {
        "corridor_id": "corridor_city_of_new_orleans",
        "name": "City of New Orleans Mainline (CN)",
        "operator": "Canadian National / Amtrak",
        "subdivision": "CN Chicago-New Orleans Sub",
        "routes": [
          "City of New Orleans",
          "Illini",
          "Saluki"
        ],
        "waypoints": 12
      }
    },
    {
      "type": "Feature",
      "geometry": {
        "type": "LineString",
        "coordinates": [
          [
            -77.2065,
            38.7185
          ],
          [
            -77.4605,
            38.3032
          ],
          [
            -77.48,
            37.759
          ],
          [
            -77.436,
            37.5407
          ],
          [
            -77.4019,
            37.2279
          ],
          [
            -77.6536,
            36.4385
          ],
          [
            -77.9158,
            35.7213
          ],
          [
            -78.8986,
            35.0527
          ],
          [
            -79.7626,
            34.1954
          ],
          [
            -80.3448,
            33.5435
          ],
          [
            -80.8431,
            32.0809
          ],
          [
            -81.4939,
            31.1499
          ],
          [
            -81.9772,
            30.8327
          ],
          [
            -81.6557,
            30.3322
          ],
          [
            -81.3031,
            29.8947
          ],
          [
            -81.3323,
            29.0286
          ],
          [
            -81.2798,
            28.7997
          ],
          [
            -81.3792,
            28.5383
          ],
          [
            -81.9535,
            28.0395
          ],
          [
            -80.1918,
            25.7617
          ]
        ]
      },
      "properties": {
        "corridor_id": "corridor_auto_train",
        "name": "Auto Train CSX Mainline",
        "operator": "CSX Transportation / Amtrak",
        "subdivision": "CSX RF&P / Florence / Nahunta Sub",
        "routes": [
          "Auto Train",
          "Silver Meteor",
          "Silver Star",
          "Floridian",
          "Palmetto"
        ],
        "waypoints": 20
      }
    },
    {
      "type": "Feature",
      "geometry": {
        "type": "LineString",
        "coordinates": [
          [
            -87.639,
            41.8789
          ],
          [
            -86.252,
            41.6764
          ],
          [
            -84.9778,
            41.6348
          ],
          [
            -83.5552,
            41.6528
          ],
          [
            -82.6841,
            41.4287
          ],
          [
            -81.6944,
            41.4993
          ],
          [
            -80.0851,
            42.1292
          ],
          [
            -78.8784,
            42.8864
          ],
          [
            -77.6109,
            43.1566
          ],
          [
            -76.1474,
            43.0481
          ],
          [
            -75.2327,
            43.1009
          ],
          [
            -73.9441,
            42.8142
          ],
          [
            -73.7413,
            42.6426
          ],
          [
            -73.9935,
            40.7505
          ],
          [
            -71.0589,
            42.3519
          ]
        ]
      },
      "properties": {
        "corridor_id": "corridor_lake_shore_limited",
        "name": "Lake Shore Limited Water Level Route (CSX)",
        "operator": "CSX Transportation / Amtrak",
        "subdivision": "Water Level Route / Chicago Line",
        "routes": [
          "Lake Shore Limited",
          "Wolverine",
          "Blue Water"
        ],
        "waypoints": 15
      }
    },
    {
      "type": "Feature",
      "geometry": {
        "type": "LineString",
        "coordinates": [
          [
            -122.3949,
            37.7764
          ],
          [
            -122.3925,
            37.757
          ],
          [
            -122.4018,
            37.6846
          ],
          [
            -122.4042,
            37.6548
          ],
          [
            -122.3867,
            37.6003
          ],
          [
            -122.3592,
            37.5797
          ],
          [
            -122.3248,
            37.5683
          ],
          [
            -122.2747,
            37.5276
          ],
          [
            -122.2316,
            37.4855
          ],
          [
            -122.1945,
            37.4549
          ],
          [
            -122.1646,
            37.4431
          ],
          [
            -122.0792,
            37.3944
          ],
          [
            -122.0309,
            37.3784
          ],
          [
            -121.9367,
            37.3531
          ],
          [
            -121.9022,
            37.3382
          ],
          [
            -121.5661,
            37.0058
          ]
        ]
      },
      "properties": {
        "corridor_id": "corridor_caltrain",
        "name": "Caltrain Peninsula Corridor",
        "operator": "Caltrain / JPB",
        "subdivision": "Peninsula Corridor Mainline",
        "routes": [
          "Caltrain",
          "Caltrain Local Weekday",
          "Caltrain Limited",
          "Caltrain Express",
          "Caltrain Local"
        ],
        "waypoints": 16
      }
    },
    {
      "type": "Feature",
      "geometry": {
        "type": "LineString",
        "coordinates": [
          [
            -88.31,
            41.758
          ],
          [
            -88.148,
            41.777
          ],
          [
            -88.01,
            41.794
          ],
          [
            -87.785,
            41.831
          ],
          [
            -87.639,
            41.8789
          ],
          [
            -87.68,
            42.045
          ],
          [
            -87.75,
            42.15
          ],
          [
            -87.83,
            42.36
          ],
          [
            -87.81,
            42.5
          ]
        ]
      },
      "properties": {
        "corridor_id": "corridor_metra",
        "name": "Metra Chicago Commuter Network",
        "operator": "Metra / Chicago Regional",
        "subdivision": "Metra Regional Lines",
        "routes": [
          "Metra",
          "Metra BNSF",
          "Metra UP-N",
          "Metra UP-NW",
          "Metra UP-W",
          "Metra MD-N",
          "Metra MD-W",
          "Metra RI",
          "Metra ME",
          "Metra SWS",
          "Metra NCS",
          "Metra HC"
        ],
        "waypoints": 9
      }
    },
    {
      "type": "Feature",
      "geometry": {
        "type": "LineString",
        "coordinates": [
          [
            -71.8,
            42.58
          ],
          [
            -71.4,
            42.5
          ],
          [
            -71.2,
            42.37
          ],
          [
            -71.0589,
            42.3519
          ],
          [
            -71.12,
            42.24
          ],
          [
            -71.3,
            42.08
          ],
          [
            -71.4189,
            41.824
          ]
        ]
      },
      "properties": {
        "corridor_id": "corridor_mbta_commuter",
        "name": "MBTA Commuter Rail Network",
        "operator": "MBTA / Keolis",
        "subdivision": "Boston Commuter Lines",
        "routes": [
          "MBTA",
          "MBTA CR-Fitchburg",
          "MBTA CR-Franklin",
          "MBTA CR-Haverhill",
          "MBTA CR-Kingston",
          "MBTA CR-Lowell",
          "MBTA CR-Middleborough",
          "MBTA CR-Needham",
          "MBTA CR-Newburyport",
          "MBTA CR-Providence",
          "MBTA CR-Worcester",
          "MBTA CR-Fairmount"
        ],
        "waypoints": 7
      }
    }
  ]
}