{"type": "FeatureCollection", "features": [{"type": "Feature", "geometry": {"type": "Point", "coordinates": [-114.3575324595694, 32.75100435808084]}, "properties": {"train_num": "1", "train_id": "1-19", "route": "Sunset Limited", "heading": "NW", "velocity": 34.8961944580078, "status": "", "origin": "New Orleans", "destination": "Los Angeles Union", "updated_at": "2026-09-20T23:45:39-07:00"}}, {"type": "Feature", "geometry": {"type": "Point", "coordinates": [-117.0180173402872, 33.943669463581806]}, "properties": {"train_num": "2", "train_id": "2-20", "route": "Sunset Limited", "heading": "E", "velocity": 44.5088043212891, "status": "", "origin": "Los Angeles Union", "destination": "New Orleans", "updated_at": "2026-09-20T23:45:39-07:00"}}, {"type": "Feature", "geometry": {"type": "Point", "coordinates": [-113.46414567231743, 35.50969082354643]}, "properties": {"train_num": "3", "train_id": "3-19", "route": "Southwest Chief", "heading": "SW", "velocity": 49.7096786499023, "status": "", "origin": "Chicago Union", "destination": "Los Angeles Union", "updated_at": "2026-09-20T23:36:39-07:00"}}, {"type": "Feature", "geometry": {"type": "Point", "coordinates": [-96.87750277208436, 38.244517357749054]}, "properties": {"train_num": "3", "train_id": "3-20", "route": "Southwest Chief", "heading": "W", "velocity": 79.3739318847656, "status": "", "origin": "Chicago Union", "destination": "Los Angeles Union", "updated_at": "2026-09-21T01:45:39-05:00"}}, {"type": "Feature", "geometry": {"type": "Point", "coordinates": [-100.33788415966393, 37.804262870469636]}, "properties": {"train_num": "4", "train_id": "4-19", "route": "Southwest Chief", "heading": "E", "velocity": 74.9621963500977, "status": "", "origin": "Los Angeles Union", "destination": "Chicago Union", "updated_at": "2026-09-21T01:45:39-05:00"}}, {"type": "Feature", "geometry": {"type": "Point", "coordinates": [-114.54388061150853, 34.75142803184123]}, "properties": {"train_num": "4", "train_id": "4-20", "route": "Southwest Chief", "heading": "SE", "velocity": 50.5361061096191, "status": "", "origin": "Los Angeles Union", "destination": "Chicago Union", "updated_at": "2026-09-20T23:45:39-07:00"}}, {"type": "Feature", "geometry": {"type": "Point", "coordinates": [-111.90227153660128, 40.54916220162901]}, "properties": {"train_num": "5", "train_id": "5-19", "route": "California Zephyr", "heading": "N", "velocity": 55.6975708007813, "status": "", "origin": "Chicago Union", "destination": "Emeryville", "updated_at": "2026-09-21T00:46:39-06:00"}}, {"type": "Feature", "geometry": {"type": "Point", "coordinates": [-96.83805141779773, 40.74832101779851]}, "properties": {"train_num": "5", "train_id": "5-20", "route": "California Zephyr", "heading": "S", "velocity": 55.5381393432617, "status": "", "origin": "Chicago Union", "destination": "Emeryville", "updated_at": "2026-09-21T01:45:39-05:00"}}, {"type": "Feature", "geometry": {"type": "Point", "coordinates": [-99.46247984951394, 40.375319690477276]}, "properties": {"train_num": "6", "train_id": "6-19", "route": "California Zephyr", "heading": "NE", "velocity": 78.4108047485352, "status": "", "origin": "Emeryville", "destination": "Chicago Union", "updated_at": "2026-09-21T01:45:39-05:00"}}, {"type": "Feature", "geometry": {"type": "Point", "coordinates": [-114.34774478623446, 40.92191900642726]}, "properties": {"train_num": "6", "train_id": "6-20", "route": "California Zephyr", "heading": "E", "velocity": 63.4306716918945, "status": "", "origin": "Emeryville", "destination": "Chicago Union", "updated_at": "2026-09-21T00:46:39-06:00"}}, {"type": "Feature", "geometry": {"type": "Point", "coordinates": [-115.79617176350273, 48.44580334381105]}, "properties": {"train_num": "7", "train_id": "7-19", "route": "Empire Builder", "heading": "W", "velocity": 44.9499740600586, "status": "", "origin": "Chicago Union", "destination": "Seattle King Street", "updated_at": "2026-09-20T23:46:09-07:00"}}, {"type": "Feature", "geometry": {"type": "Point", "coordinates": [-94.43633331145196, 46.03767056604947]}, "properties": {"train_num": "7", "train_id": "7-20", "route": "Empire Builder", "heading": "NW", "velocity": 75.0802612304688, "status": "", "origin": "Chicago Union", "destination": "Seattle King Street", "updated_at": "2026-09-21T01:45:39-05:00"}}, {"type": "Feature", "geometry": {"type": "Point", "coordinates": [-99.27693410718055, 48.27809557703046]}, "properties": {"train_num": "8", "train_id": "8-19", "route": "Empire Builder", "heading": "E", "velocity": 61.2796096801758, "status": "", "origin": "Seattle King Street", "destination": "Chicago Union", "updated_at": "2026-09-21T01:45:39-05:00"}}, {"type": "Feature", "geometry": {"type": "Point", "coordinates": [-117.86861304374777, 47.529596699990115]}, "properties": {"train_num": "8", "train_id": "8-20", "route": "Empire Builder", "heading": "NE", "velocity": 49.5356979370117, "status": "", "origin": "Seattle King Street", "destination": "Chicago Union", "updated_at": "2026-09-20T23:45:39-07:00"}}, {"type": "Feature", "geometry": {"type": "Point", "coordinates": [-122.334997520457, 41.43393849079113]}, "properties": {"train_num": "11", "train_id": "11-20", "route": "Coast Starlight", "heading": "S", "velocity": 36.2197151184082, "status": "", "origin": "Seattle King Street", "destination": "Los Angeles Union", "updated_at": "2026-09-20T23:45:39-07:00"}}, {"type": "Feature", "geometry": {"type": "Point", "coordinates": [-121.49730473706666, 38.58661396721028]}, "properties": {"train_num": "14", "train_id": "14-20", "route": "Coast Starlight", "heading": "E", "velocity": 0, "status": "", "origin": "Los Angeles Union", "destination": "Seattle King Street", "updated_at": "2026-09-20T23:45:39-07:00"}}, {"type": "Feature", "geometry": {"type": "Point", "coordinates": [-80.82233752642942, 35.24116060209414]}, "properties": {"train_num": "19", "train_id": "19-20", "route": "Crescent", "heading": "SW", "velocity": 0.0402649194002151, "status": "", "origin": "New York Penn", "destination": "New Orleans", "updated_at": "2026-09-21T02:46:39-04:00"}}, {"type": "Feature", "geometry": {"type": "Point", "coordinates": [-82.38145814722252, 34.88796527916366]}, "properties": {"train_num": "20", "train_id": "20-20", "route": "Crescent", "heading": "E", "velocity": 63.640941619873, "status": "", "origin": "New Orleans", "destination": "New York Penn", "updated_at": "2026-09-21T02:46:39-04:00"}}, {"type": "Feature", "geometry": {"type": "Point", "coordinates": [-91.21520094670392, 35.705447067616255]}, "properties": {"train_num": "21", "train_id": "21-20", "route": "Texas Eagle", "heading": "SW", "velocity": 76.0559616088867, "status": "", "origin": "Chicago Union", "destination": "San Antonio", "updated_at": "2026-09-21T01:46:39-05:00"}}, {"type": "Feature", "geometry": {"type": "Point", "coordinates": [-91.31614548517737, 35.5892246596437]}, "properties": {"train_num": "22", "train_id": "22-20", "route": "Texas Eagle", "heading": "E", "velocity": 39.6807518005371, "status": "", "origin": "San Antonio", "destination": "Chicago Union", "updated_at": "2026-09-21T01:45:39-05:00"}}, {"type": "Feature", "geometry": {"type": "Point", "coordinates": [-118.79951363168536, 46.84473251211067]}, "properties": {"train_num": "28", "train_id": "28-20", "route": "Empire Builder", "heading": "NE", "velocity": 60.2294921875, "status": "", "origin": "Portland", "destination": "Spokane", "updated_at": "2026-09-20T23:45:39-07:00"}}, {"type": "Feature", "geometry": {"type": "Point", "coordinates": [-81.14403142325976, 40.98631707332987]}, "properties": {"train_num": "40", "train_id": "40-19", "route": "Floridian", "heading": "N", "velocity": 60.3526420593262, "status": "", "origin": "Miami", "destination": "Toledo", "updated_at": "2026-09-21T02:46:39-04:00"}}, {"type": "Feature", "geometry": {"type": "Point", "coordinates": [-81.23903217087202, 32.86023202748728]}, "properties": {"train_num": "40", "train_id": "40-20", "route": "Floridian", "heading": "N", "velocity": 76.6263809204102, "status": "", "origin": "Miami", "destination": "Toledo", "updated_at": "2026-09-21T02:46:39-04:00"}}, {"type": "Feature", "geometry": {"type": "Point", "coordinates": [-81.25000322089393, 32.37546781937916]}, "properties": {"train_num": "41", "train_id": "41-19", "route": "Floridian", "heading": "S", "velocity": 77.615104675293, "status": "", "origin": "Chicago Union", "destination": "Delray Beach", "updated_at": "2026-09-21T02:46:39-04:00"}}, {"type": "Feature", "geometry": {"type": "Point", "coordinates": [-81.52318959040232, 41.36256071658361]}, "properties": {"train_num": "41", "train_id": "41-20", "route": "Floridian", "heading": "S", "velocity": 69.383171081543, "status": "", "origin": "Chicago Union", "destination": "Delray Beach", "updated_at": "2026-09-21T02:46:39-04:00"}}, {"type": "Feature", "geometry": {"type": "Point", "coordinates": [-83.54034873987301, 41.6379665537235]}, "properties": {"train_num": "48", "train_id": "48-20", "route": "Lake Shore Limited", "heading": "E", "velocity": 0.0156585797667503, "status": "", "origin": "Chicago Union", "destination": "New York Penn", "updated_at": "2026-09-21T02:46:39-04:00"}}, {"type": "Feature", "geometry": {"type": "Point", "coordinates": [-79.60962248317698, 42.314400425340764]}, "properties": {"train_num": "49", "train_id": "49-20", "route": "Lake Shore Limited", "heading": "SW", "velocity": 62.2204856872559, "status": "", "origin": "New York Penn", "destination": "Chicago Union", "updated_at": "2026-09-21T02:46:39-04:00"}}, {"type": "Feature", "geometry": {"type": "Point", "coordinates": [-84.52802735971906, 39.16006840444488]}, "properties": {"train_num": "51", "train_id": "51-20", "route": "Cardinal", "heading": "NE", "velocity": 27.5210723876953, "status": "", "origin": "New York Penn", "destination": "Chicago Union", "updated_at": "2026-09-21T02:46:39-04:00"}}, {"type": "Feature", "geometry": {"type": "Point", "coordinates": [-78.68644210754869, 35.20989541227302]}, "properties": {"train_num": "52", "train_id": "52-20", "route": "Auto Train", "heading": "NE", "velocity": 68.2020645141602, "status": "", "origin": "Sanford", "destination": "Lorton", "updated_at": "2026-09-21T02:46:39-04:00"}}, {"type": "Feature", "geometry": {"type": "Point", "coordinates": [-81.00403910131602, 32.43787247441325]}, "properties": {"train_num": "53", "train_id": "53-20", "route": "Auto Train", "heading": "S", "velocity": 70.0721435546875, "status": "", "origin": "Lorton", "destination": "Sanford", "updated_at": "2026-09-21T02:46:39-04:00"}}, {"type": "Feature", "geometry": {"type": "Point", "coordinates": [-88.99699208720727, 36.67037884452444]}, "properties": {"train_num": "59", "train_id": "59-20", "route": "City of New Orleans", "heading": "S", "velocity": 68.6801376342773, "status": "", "origin": "Chicago Union", "destination": "New Orleans", "updated_at": "2026-09-21T01:45:39-05:00"}}, {"type": "Feature", "geometry": {"type": "Point", "coordinates": [-75.18322931664281, 39.960255106085185]}, "properties": {"train_num": "66", "train_id": "66-20", "route": "Northeast Regional", "heading": "S", "velocity": 0, "status": "", "origin": "Roanoke", "destination": "Boston South", "updated_at": "2026-09-21T02:45:39-04:00"}}, {"type": "Feature", "geometry": {"type": "Point", "coordinates": [-75.18159662583652, 39.95549817719956]}, "properties": {"train_num": "67", "train_id": "67-20", "route": "Northeast Regional", "heading": "S", "velocity": 0.037282258272171, "status": "", "origin": "Boston South", "destination": "Newport News", "updated_at": "2026-09-21T02:46:39-04:00"}}, {"type": "Feature", "geometry": {"type": "Point", "coordinates": [-79.75670910236009, 34.19964506410636]}, "properties": {"train_num": "97", "train_id": "97-20", "route": "Silver Meteor", "heading": "W", "velocity": 0.0246063396334648, "status": "", "origin": "New York Penn", "destination": "Miami", "updated_at": "2026-09-21T02:46:39-04:00"}}, {"type": "Feature", "geometry": {"type": "Point", "coordinates": [-77.41834488695204, 36.89805576035028]}, "properties": {"train_num": "98", "train_id": "98-20", "route": "Silver Meteor", "heading": "N", "velocity": 78.2101364135742, "status": "", "origin": "Miami", "destination": "New York Penn", "updated_at": "2026-09-21T02:46:39-04:00"}}, {"type": "Feature", "geometry": {"type": "Point", "coordinates": [-71.0715795731772, 42.34760770060839]}, "properties": {"train_num": "166", "train_id": "166-20", "route": "Northeast Regional", "heading": "NE", "velocity": 0, "status": "", "origin": "Washington Union", "destination": "Boston South", "updated_at": "2026-09-21T02:46:09-04:00"}}, {"type": "Feature", "geometry": {"type": "Point", "coordinates": [-83.29134057581251, 42.631249060467454]}, "properties": {"train_num": "354", "train_id": "354-20", "route": "Wolverine", "heading": "N", "velocity": 0, "status": "", "origin": "Chicago Union", "destination": "Pontiac", "updated_at": "2026-09-21T02:38:00-04:00"}}, {"type": "Feature", "geometry": {"type": "Point", "coordinates": [-118.09022974448195, 33.96716031221887]}, "properties": {"train_num": "595", "train_id": "595-20", "route": "Pacific Surfliner", "heading": "W", "velocity": 50.2975959777832, "status": "", "origin": "San Diego Santa Fe Depot", "destination": "Los Angeles Union", "updated_at": "2026-09-20T23:46:39-07:00"}}, {"type": "Feature", "geometry": {"type": "Point", "coordinates": [-121.4932993046289, 38.58808644063731]}, "properties": {"train_num": "703", "train_id": "703-20", "route": "San Joaquins", "heading": "N", "velocity": 0, "status": "", "origin": "Bakersfield", "destination": "Sacramento", "updated_at": "2026-09-20T23:35:00-07:00"}}, {"type": "Feature", "geometry": {"type": "Point", "coordinates": [-119.3317919832221, 35.59514350425135]}, "properties": {"train_num": "718", "train_id": "718-20", "route": "San Joaquins", "heading": "N", "velocity": 4.55216407775879, "status": "", "origin": "Oakland-Jack London Square", "destination": "Bakersfield", "updated_at": "2026-09-20T23:46:39-07:00"}}, {"type": "Feature", "geometry": {"type": "Point", "coordinates": [-117.74067369205152, 33.66250712934985]}, "properties": {"train_num": "794", "train_id": "794-20", "route": "Pacific Surfliner", "heading": "SE", "velocity": 57.1412773132324, "status": "", "origin": "Los Angeles Union", "destination": "San Diego Santa Fe Depot", "updated_at": "2026-09-20T23:46:39-07:00"}}, {"type": "Feature", "geometry": {"type": "Point", "coordinates": [-122.7627, 53.9243]}, "properties": {"train_num": "v5", "train_id": "v5-20", "route": "Skeena", "heading": "SE", "velocity": 0, "status": "", "origin": "Jasper", "destination": "Houston", "updated_at": "2026-09-21T06:46:45Z"}}, {"type": "Feature", "geometry": {"type": "Point", "coordinates": [-122.763, 53.9244]}, "properties": {"train_num": "v6", "train_id": "v6-20", "route": "Skeena", "heading": "E", "velocity": 0, "status": "", "origin": "Cassiar Cannery", "destination": "Harvey", "updated_at": "2026-09-21T06:45:49Z"}}, {"type": "Feature", "geometry": {"type": "Point", "coordinates": [-68.6248, 48.4147]}, "properties": {"train_num": "v14", "train_id": "v14-20", "route": "Ocean", "heading": "NE", "velocity": 0, "status": "", "origin": "Montr\u00e9al", "destination": "Truro", "updated_at": "2026-09-21T06:47:00Z"}}, {"type": "Feature", "geometry": {"type": "Point", "coordinates": [-68.6251, 48.4145]}, "properties": {"train_num": "v15", "train_id": "v15-20", "route": "Ocean", "heading": "SW", "velocity": 0, "status": "", "origin": "Truro", "destination": "Montr\u00e9al", "updated_at": "2026-09-21T06:47:00Z"}}, {"type": "Feature", "geometry": {"type": "Point", "coordinates": [-79.638141, 43.704865]}, "properties": {"train_num": "v87", "train_id": "v87-20", "route": "Corridor", "heading": "N", "velocity": 0, "status": "", "origin": "Malton", "destination": "Sarnia", "updated_at": "2026-09-21T06:48:34.358Z"}}, {"type": "Feature", "geometry": {"type": "Point", "coordinates": [-101.2475, 53.8234]}, "properties": {"train_num": "v692", "train_id": "v692-19", "route": "Hudson Bay", "heading": "S", "velocity": 0, "status": "", "origin": "Churchill", "destination": "Portage la Prairie", "updated_at": "2026-09-21T06:45:02Z"}}, {"type": "Feature", "geometry": {"type": "Point", "coordinates": [-102.4931, 51.1682]}, "properties": {"train_num": "v693", "train_id": "v693-20", "route": "Hudson Bay", "heading": "NE", "velocity": 25.476211, "status": "", "origin": "Winnipeg", "destination": "Thompson", "updated_at": "2026-09-21T06:46:51Z"}}, {"type": "Feature", "geometry": {"type": "Point", "coordinates": [-97.1351, 49.8922]}, "properties": {"train_num": "v2", "train_id": "v2-18", "route": "Canadian", "heading": "N", "velocity": 0, "status": "", "origin": "Mission Harbour", "destination": "Hillsport", "updated_at": "2026-09-21T06:45:00Z"}}, {"type": "Feature", "geometry": {"type": "Point", "coordinates": [-82.6064, 48.3438]}, "properties": {"train_num": "v1", "train_id": "v1-20", "route": "Canadian", "heading": "W", "velocity": 45.360083, "status": "", "origin": "Toronto", "destination": "Minaki", "updated_at": "2026-09-21T06:35:00Z"}}, {"type": "Feature", "geometry": {"type": "Point", "coordinates": [-123.0906, 49.273]}, "properties": {"train_num": "v1", "train_id": "v1-16", "route": "Canadian", "heading": "W", "velocity": 0, "status": "", "origin": "Laforest", "destination": "Chilliwack", "updated_at": "2026-09-21T06:45:03Z"}}]}