{
  "type": "FeatureCollection",
  "total_cams": 7,
  "features": [
    {
      "type": "Feature",
      "geometry": {
        "type": "Point",
        "coordinates": [
          -78.4842,
          40.4965
        ]
      },
      "properties": {
        "cam_id": "cam_horseshoe_curve",
        "name": "Horseshoe Curve (Railroaders Memorial Museum)",
        "location": "Altoona, PA",
        "route": "Pennsylvanian",
        "subdivision": "NS Pittsburgh Line",
        "milepost": "MP 242.0",
        "provider": "Railroaders Memorial Museum",
        "stream_url": "https://www.railroadcity.org",
        "embed_url": ""
      }
    },
    {
      "type": "Feature",
      "geometry": {
        "type": "Point",
        "coordinates": [
          -118.5367,
          35.2008
        ]
      },
      "properties": {
        "cam_id": "cam_tehachapi_loop",
        "name": "Tehachapi Loop (Walong)",
        "location": "Tehachapi, CA",
        "route": "San Joaquins (Bus/Freight Interconnect)",
        "subdivision": "UP Mojave Sub",
        "milepost": "MP 351.6",
        "provider": "Tehachapi Live Railcam",
        "stream_url": "https://tehachapilivecam.com",
        "embed_url": ""
      }
    },
    {
      "type": "Feature",
      "geometry": {
        "type": "Point",
        "coordinates": [
          -89.0664,
          41.9168
        ]
      },
      "properties": {
        "cam_id": "cam_rochelle_diamond",
        "name": "Rochelle Railroad Park (Double Diamond)",
        "location": "Rochelle, IL",
        "route": "Illinois Zephyr / Southwest Chief corridor",
        "subdivision": "UP Geneva Sub / BNSF Aurora Sub",
        "milepost": "MP 75.2",
        "provider": "City of Rochelle",
        "stream_url": "https://www.cityofrochelle.net/railroad-park",
        "embed_url": ""
      }
    },
    {
      "type": "Feature",
      "geometry": {
        "type": "Point",
        "coordinates": [
          -117.9228,
          33.8687
        ]
      },
      "properties": {
        "cam_id": "cam_fullerton_depot",
        "name": "Fullerton Historic Depot",
        "location": "Fullerton, CA",
        "route": "Pacific Surfliner / Southwest Chief",
        "subdivision": "BNSF San Bernardino Sub",
        "milepost": "MP 165.2",
        "provider": "City of Fullerton / Caltrans",
        "stream_url": "https://quickmap.dot.ca.gov",
        "embed_url": ""
      }
    },
    {
      "type": "Feature",
      "geometry": {
        "type": "Point",
        "coordinates": [
          -111.6483,
          35.1977
        ]
      },
      "properties": {
        "cam_id": "cam_flagstaff_depot",
        "name": "Flagstaff Historic Depot",
        "location": "Flagstaff, AZ",
        "route": "Southwest Chief",
        "subdivision": "BNSF Seligman Sub",
        "milepost": "MP 344.0",
        "provider": "City of Flagstaff / ADOT",
        "stream_url": "https://www.flagstaffarizona.org",
        "embed_url": ""
      }
    },
    {
      "type": "Feature",
      "geometry": {
        "type": "Point",
        "coordinates": [
          -90.3664,
          40.9431
        ]
      },
      "properties": {
        "cam_id": "cam_galesburg_depot",
        "name": "Galesburg Railroad Museum Depot",
        "location": "Galesburg, IL",
        "route": "California Zephyr / Southwest Chief / Carl Sandburg",
        "subdivision": "BNSF Chillicothe / Mendota Sub",
        "milepost": "MP 162.0",
        "provider": "Galesburg Railroad Museum",
        "stream_url": "https://www.galesburgrailroadmuseum.org",
        "embed_url": ""
      }
    },
    {
      "type": "Feature",
      "geometry": {
        "type": "Point",
        "coordinates": [
          -76.0712,
          39.5598
        ]
      },
      "properties": {
        "cam_id": "cam_chesapeake_city",
        "name": "Perryville MARC / Northeast Corridor",
        "location": "Perryville, MD",
        "route": "Northeast Regional / Acela",
        "subdivision": "Amtrak Mid-Atlantic Division",
        "milepost": "MP 60.1",
        "provider": "MDOT SHA / Maryland Transit",
        "stream_url": "https://chart.maryland.gov",
        "embed_url": ""
      }
    }
  ]
}